{"type":"Feature","properties":{"MUN":"UPPER TWP","COUNTY":"CAPE MAY","MUN_LABEL":"Upper Township","MUN_TYPE":"Township","NAME":"Upper Township","GNIS_NAME":"Township of Upper"},"geometry":{"type":"Polygon","coordinates":[[[-74.6426732,39.2402887],[-74.6428794,39.2401418],[-74.6432328,39.239994],[-74.6436748,39.2399345],[-74.6444959,39.2399531],[-74.6457215,39.2401186],[-74.6461131,39.2400985],[-74.6465171,39.2399997],[-74.6465738,39.2399694],[-74.6467568,39.2398717],[-74.6470343,39.2396847],[-74.6472422,39.2394291],[-74.6473974,39.239065],[-74.6478456,39.2380138],[-74.6478745,39.2378808],[-74.6479331,39.237611],[-74.6479452,39.2373359],[-74.6478935,39.2367957],[-74.6477278,39.2360494],[-74.647603,39.2356639],[-74.6475498,39.2354995],[-74.6471442,39.2348321],[-74.6462703,39.2337035],[-74.646194,39.2334483],[-74.6461678,39.2329866],[-74.6462177,39.2327017],[-74.646342,39.2323711],[-74.6463433,39.2323675],[-74.6466582,39.2319546],[-74.6470612,39.2313745],[-74.6473631,39.2307848],[-74.6478264,39.2294087],[-74.6479091,39.2291633],[-74.6480853,39.228888],[-74.6484256,39.2285536],[-74.6488671,39.2283075],[-74.6493467,39.2281301],[-74.6499022,39.2280311],[-74.6514303,39.22798],[-74.6543474,39.2278681],[-74.6546125,39.2277892],[-74.6549279,39.2276218],[-74.6551547,39.2273857],[-74.6552426,39.2271695],[-74.6552544,39.2270185],[-74.655261,39.2269338],[-74.6551845,39.2265802],[-74.6546634,39.2250682],[-74.6545992,39.2246164],[-74.6545983,39.2242039],[-74.654611,39.2240831],[-74.6546725,39.2234965],[-74.6547966,39.2224551],[-74.6547888,39.2222851],[-74.654717,39.2207166],[-74.65467,39.2199191],[-74.6546383,39.2193808],[-74.6546499,39.218919],[-74.6547622,39.2183295],[-74.6547865,39.217858],[-74.6546175,39.2169545],[-74.6516242,39.2167117],[-74.6511691,39.2166491],[-74.6492011,39.2163785],[-74.6482996,39.2162546],[-74.6480665,39.2161716],[-74.6478165,39.2160621],[-74.6475744,39.2158966],[-74.6474572,39.21573],[-74.6472972,39.2154819],[-74.64718,39.2150974],[-74.6471103,39.214722],[-74.6471097,39.214443],[-74.647195,39.2141444],[-74.6473095,39.2139567],[-74.6474944,39.213756],[-74.6519752,39.2099953],[-74.6521264,39.2097698],[-74.6522044,39.2094947],[-74.6522359,39.2093835],[-74.6522543,39.2083106],[-74.6504468,39.2078195],[-74.6493843,39.2075097],[-74.6488323,39.2072959],[-74.6486175,39.2071764],[-74.6481972,39.2069426],[-74.6480819,39.206858],[-74.6496456,39.2041718],[-74.6498453,39.2038736],[-74.6499048,39.2037723],[-74.6499485,39.2036656],[-74.6500185,39.2034988],[-74.6500452,39.2034203],[-74.6500464,39.2034167],[-74.6500708,39.2033374],[-74.6500847,39.203254],[-74.6500864,39.2032007],[-74.6500801,39.2031473],[-74.6500324,39.203038],[-74.6499494,39.202893],[-74.6497926,39.2026187],[-74.6497424,39.2025499],[-74.6497239,39.2025244],[-74.6496974,39.2024671],[-74.6496832,39.2023946],[-74.649674,39.202206],[-74.6496631,39.2020433],[-74.6496716,39.2019326],[-74.6496593,39.2019134],[-74.6496364,39.2018807],[-74.6496292,39.2018028],[-74.6496309,39.2017713],[-74.6496397,39.2017686],[-74.6496625,39.2017726],[-74.6496889,39.2017917],[-74.6498968,39.2020375],[-74.6499377,39.2020575],[-74.6501289,39.2021509],[-74.6502151,39.202193],[-74.6503814,39.2019882],[-74.6504226,39.2018564],[-74.650426,39.2018072],[-74.6504329,39.2017566],[-74.6504327,39.2017531],[-74.6504293,39.201706],[-74.6504152,39.2016609],[-74.6503974,39.2015899],[-74.6503938,39.2015502],[-74.6503991,39.2015284],[-74.6504166,39.2014955],[-74.6504761,39.2014148],[-74.6505425,39.2012479],[-74.650567,39.2011768],[-74.6506001,39.2010496],[-74.650628,39.2009361],[-74.6506267,39.2009102],[-74.6506825,39.200732],[-74.6507064,39.2006006],[-74.6507037,39.2005303],[-74.6507013,39.2004655],[-74.6507131,39.2003379],[-74.6508378,39.2000075],[-74.6510678,39.1993316],[-74.6513558,39.1986407],[-74.6514831,39.1984702],[-74.6515914,39.1983251],[-74.6520536,39.1979042],[-74.6526121,39.1974456],[-74.6535945,39.1967462],[-74.6541628,39.1963326],[-74.6551497,39.1954906],[-74.6569503,39.1940245],[-74.6581874,39.1929345],[-74.6600261,39.1913407],[-74.6615278,39.189995],[-74.6625003,39.1892505],[-74.6635398,39.1884157],[-74.6639148,39.18805],[-74.6641133,39.1878574],[-74.6643391,39.1876868],[-74.6645239,39.1875118],[-74.6645367,39.1874997],[-74.664713,39.1873292],[-74.6650103,39.1869826],[-74.6651443,39.186779],[-74.6652855,39.1865645],[-74.6654619,39.1862949],[-74.6657724,39.1860582],[-74.6659779,39.1859537],[-74.6660907,39.1858876],[-74.6661261,39.1858216],[-74.6662177,39.1855025],[-74.6663659,39.1853595],[-74.6665283,39.1851559],[-74.6671994,39.1846057],[-74.6673687,39.1845066],[-74.6674675,39.1844075],[-74.6675451,39.1843085],[-74.6677012,39.1840829],[-74.6688662,39.1827844],[-74.669219,39.1824982],[-74.6695868,39.1822616],[-74.6698055,39.1820305],[-74.6699637,39.1817606],[-74.6732056,39.1834055],[-74.6732205,39.1833968],[-74.6733141,39.1833471],[-74.6733375,39.1833581],[-74.6734781,39.1834541],[-74.6735597,39.1833799],[-74.6736364,39.1832862],[-74.6736631,39.1832965],[-74.6737031,39.1832522],[-74.6737282,39.18326],[-74.6737565,39.1832236],[-74.6737364,39.1832028],[-74.6737998,39.1831377],[-74.6738232,39.183148],[-74.6738798,39.1830816],[-74.6739133,39.1830972],[-74.6739649,39.1830321],[-74.6740017,39.1830476],[-74.67405,39.1829916],[-74.6740099,39.1829618],[-74.6741199,39.1828517],[-74.6742083,39.1828152],[-74.6742637,39.1827595],[-74.6743067,39.1827162],[-74.6743668,39.1826953],[-74.6744217,39.1826386],[-74.6745416,39.1825698],[-74.6745599,39.1825602],[-74.6746385,39.1825474],[-74.6747078,39.1825394],[-74.6749169,39.1825248],[-74.674974,39.1825263],[-74.6750005,39.1825262],[-74.6750352,39.1825278],[-74.6751852,39.1825368],[-74.6753996,39.1825617],[-74.6754996,39.1825874],[-74.6757716,39.1826463],[-74.6758027,39.1826584],[-74.6759227,39.1826858],[-74.6762193,39.1827864],[-74.676358,39.1828021],[-74.6763867,39.1828274],[-74.6764336,39.1828321],[-74.6764824,39.1828544],[-74.6765348,39.1828947],[-74.6768136,39.183034],[-74.676942,39.1830662],[-74.6770705,39.1831319],[-74.6771317,39.1831429],[-74.6771726,39.1831523],[-74.6771764,39.1831565],[-74.6771991,39.1831809],[-74.6772214,39.1831917],[-74.6772861,39.183201],[-74.6773751,39.1832103],[-74.6774257,39.1832274],[-74.6774584,39.1832385],[-74.6775359,39.1832272],[-74.6776421,39.1832461],[-74.6776727,39.1832429],[-74.677693,39.1832317],[-74.6777335,39.1831882],[-74.6778193,39.1831581],[-74.6778845,39.183085],[-74.6781122,39.1827908],[-74.6783886,39.1823569],[-74.6784535,39.1822409],[-74.6784574,39.1822195],[-74.6784533,39.1821493],[-74.6784611,39.1821355],[-74.6785021,39.1820713],[-74.6785176,39.181998],[-74.6785097,39.1819644],[-74.6785018,39.1819522],[-74.6784763,39.1819416],[-74.6784312,39.1819462],[-74.6784076,39.1819539],[-74.6783979,39.1819631],[-74.6783979,39.1819768],[-74.6784333,39.1820119],[-74.6784451,39.1820241],[-74.6784451,39.1820393],[-74.6784393,39.182047],[-74.6784334,39.1820516],[-74.6783314,39.1820685],[-74.6783177,39.1820685],[-74.6782824,39.182064],[-74.6782784,39.1820533],[-74.6782623,39.1819113],[-74.6782623,39.181893],[-74.6783424,39.1817738],[-74.6783679,39.1817554],[-74.6783934,39.1817508],[-74.6785092,39.1817812],[-74.678521,39.1817842],[-74.6785288,39.1817766],[-74.6785288,39.1817643],[-74.6784933,39.1816835],[-74.6784854,39.1816591],[-74.6784908,39.1815894],[-74.6784989,39.1815582],[-74.6785165,39.1815353],[-74.6785925,39.1815113],[-74.6786419,39.1814832],[-74.6786595,39.1814694],[-74.6789628,39.1811346],[-74.6789804,39.1811223],[-74.6790176,39.1811024],[-74.6790314,39.1810978],[-74.6790451,39.1810856],[-74.679055,39.1810284],[-74.6790545,39.1810169],[-74.6790526,39.1809684],[-74.679075,39.1809468],[-74.6791348,39.1809298],[-74.6791644,39.1809226],[-74.6791889,39.1809214],[-74.6792338,39.1809197],[-74.6792593,39.1809197],[-74.6793072,39.1809355],[-74.6793236,39.1809339],[-74.6793368,39.1809291],[-74.6793582,39.1809156],[-74.6793695,39.1808951],[-74.6793613,39.1808636],[-74.6793421,39.1808389],[-74.67934,39.1808315],[-74.6792998,39.180795],[-74.6792793,39.1807823],[-74.6791896,39.1807951],[-74.6791396,39.1808],[-74.679108,39.1807969],[-74.6790488,39.1807874],[-74.6789997,39.1807621],[-74.6789793,39.1807304],[-74.6789483,39.1806065],[-74.6789483,39.1805827],[-74.6789483,39.1805764],[-74.6789544,39.1805668],[-74.6789605,39.1805637],[-74.6789727,39.180562],[-74.6790258,39.1805636],[-74.6790278,39.1805636],[-74.6790625,39.1805619],[-74.6790778,39.1805555],[-74.679093,39.1805444],[-74.6791368,39.180513],[-74.6791572,39.1805046],[-74.6791664,39.1804998],[-74.6792439,39.180487],[-74.6792571,39.1804854],[-74.6792928,39.1804691],[-74.6793285,39.1804619],[-74.679357,39.1804531],[-74.6793876,39.1804324],[-74.6794314,39.1804137],[-74.6794385,39.1804029],[-74.6794405,39.1803855],[-74.6794328,39.1803457],[-74.6793943,39.1803095],[-74.6792991,39.1802546],[-74.6792667,39.1802452],[-74.6792323,39.1802405],[-74.6792121,39.180239],[-74.6791939,39.180239],[-74.6791777,39.1802406],[-74.6791656,39.1802453],[-74.6791636,39.1802501],[-74.6791596,39.180269],[-74.6791596,39.1802768],[-74.6791576,39.1802816],[-74.6791515,39.1802863],[-74.6791293,39.180291],[-74.679103,39.1802911],[-74.6790686,39.1802927],[-74.6790504,39.1803006],[-74.6790424,39.1803069],[-74.6790302,39.1803116],[-74.6790262,39.1803148],[-74.6789999,39.1803164],[-74.6789756,39.1803117],[-74.6789276,39.180286],[-74.6788297,39.1801724],[-74.6788158,39.1801574],[-74.6787187,39.180136],[-74.6787103,39.1801209],[-74.6786936,39.1800864],[-74.6786742,39.1800778],[-74.6786603,39.1800713],[-74.6785993,39.1800542],[-74.6785632,39.180037],[-74.6785299,39.1800003],[-74.6785215,39.1799701],[-74.6785046,39.1798666],[-74.6784962,39.1798472],[-74.6784824,39.1798343],[-74.6784324,39.1798258],[-74.6784269,39.1798085],[-74.678424,39.1797913],[-74.678435,39.1797308],[-74.6784266,39.179705],[-74.6784127,39.179692],[-74.6783905,39.1796856],[-74.6783046,39.1796857],[-74.6780996,39.1797141],[-74.6780215,39.179726],[-74.6779966,39.1797076],[-74.6779952,39.1797069],[-74.677635,39.1795485],[-74.67763,39.1795449],[-74.6775158,39.1794934],[-74.6774933,39.1794664],[-74.677483,39.1794379],[-74.677483,39.1794141],[-74.6774869,39.1793808],[-74.6775052,39.1793443],[-74.6775478,39.1792744],[-74.6775904,39.1791792],[-74.6775903,39.1791443],[-74.6775902,39.1791141],[-74.6775759,39.179092],[-74.6775085,39.1790381],[-74.6774105,39.178978],[-74.6773717,39.1789456],[-74.6773594,39.1788901],[-74.6773347,39.1787933],[-74.6773264,39.1787664],[-74.6772651,39.1787014],[-74.6772448,39.1786967],[-74.6772162,39.1786968],[-74.6771592,39.1787],[-74.6771469,39.1786905],[-74.6771451,39.1786896],[-74.6771224,39.1786779],[-74.6771101,39.1786557],[-74.6771068,39.178621],[-74.6770966,39.1785895],[-74.6770986,39.1785738],[-74.6771107,39.1785501],[-74.677151,39.1785044],[-74.6771762,39.1784734],[-74.677197,39.1784636],[-74.6772123,39.1784614],[-74.6772818,39.1784548],[-74.6772924,39.1784476],[-74.6773025,39.1784334],[-74.6773105,39.1784129],[-74.6773326,39.1783483],[-74.6773346,39.1783294],[-74.6773346,39.1783184],[-74.6773285,39.1783058],[-74.6773163,39.1782948],[-74.6773102,39.1782901],[-74.6773001,39.1782823],[-74.677294,39.1782681],[-74.6772878,39.1782366],[-74.677325,39.1781492],[-74.6773493,39.1781335],[-74.6773715,39.1781193],[-74.6773977,39.1781003],[-74.6774098,39.178083],[-74.677434,39.1780546],[-74.6774461,39.1780247],[-74.677452,39.1779838],[-74.6774702,39.1779601],[-74.6774883,39.1779459],[-74.6775105,39.1779302],[-74.6775348,39.1779207],[-74.6775833,39.1779206],[-74.6776076,39.1779206],[-74.677646,39.1779174],[-74.6776642,39.1779063],[-74.6776762,39.1778685],[-74.6776649,39.1778079],[-74.677677,39.1777764],[-74.6777375,39.1777102],[-74.6777536,39.1776756],[-74.6777535,39.1776536],[-74.6777535,39.1776347],[-74.6777413,39.1776064],[-74.6777412,39.1775906],[-74.6777533,39.1775717],[-74.6777654,39.1775591],[-74.6777977,39.1775339],[-74.6778301,39.1775291],[-74.6778523,39.1775385],[-74.6778705,39.1775464],[-74.6778949,39.1775684],[-74.677909,39.1775731],[-74.6779353,39.1775746],[-74.677998,39.1775556],[-74.6780253,39.1775548],[-74.6780587,39.1775665],[-74.678081,39.1775901],[-74.6780992,39.1775964],[-74.6781194,39.1775963],[-74.6781335,39.1775884],[-74.6781416,39.1775711],[-74.6781537,39.1775522],[-74.6781658,39.1775302],[-74.6781656,39.1774829],[-74.6781534,39.1774452],[-74.678121,39.1774201],[-74.6780805,39.1774012],[-74.6780481,39.1773792],[-74.678044,39.1773509],[-74.678052,39.1773163],[-74.6780883,39.1772784],[-74.6782028,39.1772599],[-74.6782339,39.1772453],[-74.6782835,39.1772089],[-74.6783457,39.1771991],[-74.6785249,39.1771991],[-74.6786138,39.1771926],[-74.678631,39.177184],[-74.6786431,39.1771682],[-74.6786751,39.177097],[-74.6787433,39.1770025],[-74.6789873,39.176818],[-74.6792131,39.176677],[-74.6792777,39.1766234],[-74.6793543,39.1765037],[-74.6793849,39.1764689],[-74.6794314,39.1763805],[-74.6794484,39.176355],[-74.679526,39.1762968],[-74.6795384,39.1762871],[-74.6795399,39.1762762],[-74.6795275,39.1762569],[-74.6795266,39.1762448],[-74.6795251,39.1762412],[-74.6795328,39.1762351],[-74.6795445,39.1762302],[-74.6795725,39.176235],[-74.679588,39.1762362],[-74.6796052,39.176235],[-74.6796253,39.1762168],[-74.6797315,39.1760738],[-74.6797655,39.1759915],[-74.6797779,39.1759745],[-74.6797996,39.1759503],[-74.6798318,39.1759156],[-74.6798616,39.1758836],[-74.6799166,39.1758109],[-74.679946,39.1757576],[-74.6799599,39.1757212],[-74.6799723,39.1757067],[-74.6799785,39.1756994],[-74.6799863,39.1756946],[-74.6799972,39.1756849],[-74.6800158,39.1756764],[-74.6800251,39.1756703],[-74.6800422,39.1756594],[-74.6800515,39.1756485],[-74.68007,39.1756073],[-74.6800762,39.1755758],[-74.6800785,39.1755567],[-74.6800838,39.1755129],[-74.680093,39.1754693],[-74.6801163,39.1754329],[-74.6801457,39.1753833],[-74.680172,39.1753506],[-74.6802,39.175336],[-74.6802828,39.1752952],[-74.6802996,39.17528],[-74.6803002,39.1752662],[-74.6802884,39.1752412],[-74.6802856,39.1752175],[-74.6803284,39.1751287],[-74.680406,39.1749966],[-74.6804171,39.1749499],[-74.6804034,39.1749024],[-74.6803939,39.174854],[-74.6803938,39.1748104],[-74.6803999,39.1747741],[-74.6804293,39.174722],[-74.6804588,39.1746868],[-74.6805256,39.1746347],[-74.6805705,39.1745995],[-74.6806171,39.174568],[-74.6806388,39.1745341],[-74.6806561,39.1744615],[-74.6806892,39.1744119],[-74.6808007,39.1742508],[-74.6808354,39.1741997],[-74.6808851,39.1741271],[-74.6808988,39.1741034],[-74.6809284,39.1740809],[-74.6809439,39.1740737],[-74.6809865,39.1740634],[-74.6810286,39.1740493],[-74.681041,39.174042],[-74.6810441,39.1740348],[-74.6810391,39.1740207],[-74.6810363,39.1740118],[-74.681016,39.1739925],[-74.6810098,39.1739804],[-74.6810159,39.1739404],[-74.6810154,39.173927],[-74.6809964,39.1739041],[-74.6809737,39.1738787],[-74.6809674,39.1738461],[-74.6809829,39.1738061],[-74.6810273,39.1737255],[-74.6810397,39.1736856],[-74.681034,39.1736446],[-74.6810215,39.1736112],[-74.6809978,39.1735475],[-74.6809877,39.1735381],[-74.6809493,39.1735319],[-74.6809083,39.1735218],[-74.6808974,39.1735085],[-74.6808804,39.1734753],[-74.6808903,39.1734249],[-74.6809057,39.1734056],[-74.6809259,39.1733947],[-74.6809616,39.173385],[-74.6810222,39.1733933],[-74.681046,39.1733869],[-74.6810641,39.1733774],[-74.6810797,39.1733581],[-74.6811497,39.173227],[-74.6811678,39.1731923],[-74.6811859,39.1731687],[-74.6812343,39.1731167],[-74.6813141,39.1730685],[-74.6813312,39.173052],[-74.6813332,39.1730425],[-74.6813312,39.1730284],[-74.681321,39.1730032],[-74.6813088,39.1729843],[-74.6812784,39.1729435],[-74.6812721,39.1728553],[-74.6813091,39.1727034],[-74.6813234,39.1726585],[-74.6813462,39.1725782],[-74.6813663,39.1725404],[-74.6814218,39.1724781],[-74.6814581,39.1724592],[-74.6815226,39.1724135],[-74.6815586,39.1723811],[-74.6815902,39.172315],[-74.6816145,39.1720782],[-74.6816421,39.1720351],[-74.6817267,39.1719464],[-74.6818383,39.1718662],[-74.6818429,39.1718658],[-74.6819084,39.1718202],[-74.681965,39.1717918],[-74.6820296,39.1717665],[-74.6821388,39.1717569],[-74.6822007,39.1717476],[-74.6822468,39.1717324],[-74.6822865,39.1716982],[-74.6823338,39.1716532],[-74.6825428,39.1714545],[-74.6825865,39.171428],[-74.6826276,39.1714161],[-74.6827797,39.1714215],[-74.6828214,39.1714029],[-74.6828552,39.1713796],[-74.682883,39.1713625],[-74.6828969,39.1713299],[-74.6829148,39.1713144],[-74.6829347,39.171305],[-74.6830103,39.1712925],[-74.6830301,39.1712693],[-74.6830579,39.1712351],[-74.6830737,39.1711715],[-74.6830736,39.171125],[-74.6830834,39.1710878],[-74.6830914,39.1710677],[-74.6831211,39.171032],[-74.683139,39.1710087],[-74.6831568,39.1709808],[-74.6831986,39.1709512],[-74.6832284,39.1709465],[-74.6832563,39.1709388],[-74.6832702,39.1709279],[-74.6832821,39.1709062],[-74.6833099,39.1708829],[-74.6833338,39.1708735],[-74.6833596,39.1708719],[-74.6833756,39.1708719],[-74.6833935,39.1708719],[-74.6834293,39.1708734],[-74.6834612,39.1708733],[-74.683515,39.170867],[-74.6835508,39.1708639],[-74.6836105,39.1708545],[-74.6836582,39.1708389],[-74.6837159,39.1708109],[-74.6837596,39.1707737],[-74.6838033,39.1707348],[-74.6838261,39.1706728],[-74.683834,39.1706449],[-74.6838757,39.1706169],[-74.6838876,39.1706076],[-74.6839155,39.1705998],[-74.6839274,39.1705952],[-74.6839414,39.1705936],[-74.6839633,39.1705905],[-74.6839712,39.1705889],[-74.6839811,39.1705796],[-74.683995,39.1705656],[-74.6840309,39.1705516],[-74.6840587,39.1705376],[-74.6840706,39.1705236],[-74.6840844,39.1704818],[-74.6840942,39.1704259],[-74.6840962,39.1704089],[-74.6841081,39.1703949],[-74.68412,39.1703856],[-74.6841359,39.1703809],[-74.6841439,39.1703778],[-74.6841658,39.1703778],[-74.6841777,39.1703793],[-74.6842036,39.1703793],[-74.6842255,39.1703792],[-74.6842435,39.1703823],[-74.6842614,39.1703823],[-74.6842813,39.1703869],[-74.6842933,39.1703915],[-74.6843411,39.1704209],[-74.6843591,39.1704317],[-74.684375,39.1704317],[-74.684383,39.1704317],[-74.6844048,39.1704224],[-74.6844526,39.1703975],[-74.6845361,39.1703679],[-74.6845938,39.1703561],[-74.6846435,39.1703043],[-74.6846434,39.1702698],[-74.6846156,39.1702268],[-74.6846042,39.1700975],[-74.684626,39.1699681],[-74.6845706,39.1698626],[-74.6845307,39.169813],[-74.6843588,39.1695163],[-74.6843376,39.1694118],[-74.6843311,39.1693206],[-74.6919565,39.1737879],[-74.7086877,39.1852649],[-74.7086918,39.1853292],[-74.7087115,39.185425],[-74.7087279,39.1854856],[-74.7087638,39.1855587],[-74.7088061,39.1856167],[-74.7088475,39.1856525],[-74.7089028,39.1856941],[-74.7089418,39.1857218],[-74.7090019,39.1857544],[-74.7090506,39.185772],[-74.7090895,39.1857858],[-74.7091333,39.1857921],[-74.7091706,39.1857933],[-74.7092144,39.1857919],[-74.709263,39.185788],[-74.70931,39.1857829],[-74.7093651,39.185774],[-74.7094145,39.1857543],[-74.7094679,39.1857277],[-74.7095262,39.1856961],[-74.7096443,39.1856391],[-74.7096945,39.1856163],[-74.7098014,39.1855783],[-74.7098629,39.1855567],[-74.7099424,39.1855439],[-74.7100186,39.1855413],[-74.7101069,39.1855443],[-74.7101718,39.185558],[-74.7102335,39.1855769],[-74.7102952,39.1856058],[-74.7103569,39.1856397],[-74.7104137,39.1856724],[-74.7104357,39.185702],[-74.7104455,39.185731],[-74.7104521,39.1857613],[-74.7104619,39.185808],[-74.7104669,39.1858509],[-74.7104695,39.1859133],[-74.7104584,39.1859638],[-74.7104423,39.1860319],[-74.7104296,39.1861152],[-74.7103991,39.1862137],[-74.7103863,39.1862806],[-74.7103727,39.186338],[-74.7103599,39.1863759],[-74.7103416,39.1864154],[-74.7103405,39.1864176],[-74.7103244,39.1864479],[-74.7103181,39.1864896],[-74.7103182,39.1865236],[-74.7103158,39.1865533],[-74.7103321,39.1865949],[-74.710355,39.1866264],[-74.710381,39.1866566],[-74.7104248,39.1866881],[-74.7104809,39.1867151],[-74.7105328,39.1867263],[-74.7105798,39.1867301],[-74.7106381,39.1867274],[-74.7107501,39.1867361],[-74.710823,39.186741],[-74.7108879,39.1867535],[-74.7109528,39.1867735],[-74.7110096,39.1867962],[-74.7110794,39.1868288],[-74.7111371,39.1868647],[-74.7111972,39.1869138],[-74.7112428,39.1869553],[-74.7113268,39.1871387],[-74.7113594,39.1872119],[-74.7114028,39.187285],[-74.7114389,39.1873409],[-74.7115039,39.1874115],[-74.7115652,39.1874687],[-74.7116135,39.1875119],[-74.7117759,39.1876116],[-74.7118395,39.1876542],[-74.7118859,39.1876889],[-74.7119289,39.1877271],[-74.7119605,39.1877618],[-74.712049,39.1878836],[-74.7120788,39.18792],[-74.7120886,39.1879301],[-74.7122292,39.1880747],[-74.7122631,39.1881147],[-74.7122907,39.1881538],[-74.7123068,39.1881894],[-74.7123183,39.1882232],[-74.7123253,39.1882633],[-74.7123266,39.1883212],[-74.7123057,39.1885794],[-74.7123058,39.1886168],[-74.712311,39.1886462],[-74.7123266,39.1886827],[-74.7123409,39.1886969],[-74.7123684,39.1887156],[-74.7123965,39.1887337],[-74.7124235,39.1887511],[-74.7124533,39.1887626],[-74.7124727,39.1887652],[-74.7125002,39.1887652],[-74.7125271,39.1887625],[-74.7125431,39.1887571],[-74.7127716,39.1886587],[-74.7128082,39.1886408],[-74.7128356,39.1886319],[-74.7128608,39.1886283],[-74.7128802,39.1886318],[-74.7128928,39.1886389],[-74.7129043,39.1886522],[-74.7129124,39.1886754],[-74.7129171,39.1887074],[-74.7129218,39.1887591],[-74.712914,39.1888294],[-74.7129139,39.18883],[-74.7129052,39.1889156],[-74.7128985,39.1889826],[-74.7128934,39.189028],[-74.712897,39.1890645],[-74.7129063,39.1891072],[-74.7129144,39.1891313],[-74.7129236,39.1891553],[-74.7129339,39.1891784],[-74.7129523,39.1891989],[-74.7129718,39.1892086],[-74.7129918,39.1892122],[-74.7130176,39.1892121],[-74.7130353,39.1892103],[-74.7130627,39.1892031],[-74.713093,39.1891897],[-74.7131182,39.1891834],[-74.7131491,39.1891825],[-74.7131771,39.1891887],[-74.7132023,39.1891993],[-74.7132367,39.189217],[-74.713255,39.1892313],[-74.7132665,39.1892437],[-74.7132734,39.1892588],[-74.7132735,39.1892802],[-74.7132667,39.1893078],[-74.7132645,39.1893345],[-74.7132646,39.1893524],[-74.7132657,39.1893559],[-74.7132669,39.1893702],[-74.7132738,39.1893862],[-74.7132853,39.1894057],[-74.7132991,39.189428],[-74.7133152,39.1894502],[-74.7133657,39.1895107],[-74.7135036,39.1897045],[-74.7135375,39.1897499],[-74.7135788,39.1897979],[-74.7136064,39.1898228],[-74.7136322,39.189845],[-74.7136964,39.1898912],[-74.7137492,39.1899286],[-74.7137515,39.1899302],[-74.7137519,39.1899306],[-74.7139227,39.1900669],[-74.713923,39.1900672],[-74.7139234,39.1900677],[-74.7139393,39.1900848],[-74.7139472,39.1901051],[-74.7139556,39.1901342],[-74.713966,39.1901648],[-74.7139786,39.1901939],[-74.7140015,39.1902132],[-74.7140168,39.1902214],[-74.7140368,39.1902261],[-74.7140742,39.1902341],[-74.7141095,39.1902453],[-74.7142193,39.1903051],[-74.7144096,39.1904551],[-74.7144116,39.1904568],[-74.7144372,39.1904758],[-74.7144664,39.190508],[-74.714481,39.1905355],[-74.7144894,39.1905565],[-74.7145206,39.1906016],[-74.7145685,39.1906468],[-74.7146268,39.1906903],[-74.7147184,39.1907628],[-74.714786,39.1908176],[-74.714836,39.1908515],[-74.7148692,39.1908611],[-74.7148962,39.1908659],[-74.7149294,39.1908707],[-74.7149502,39.1908755],[-74.7149752,39.1908851],[-74.7149897,39.1908964],[-74.7150043,39.1909126],[-74.7150127,39.1909319],[-74.7150189,39.1909545],[-74.715019,39.1909804],[-74.7150141,39.1910563],[-74.7150142,39.1910854],[-74.7150205,39.1911064],[-74.7150309,39.1911193],[-74.7150413,39.1911273],[-74.7150558,39.1911338],[-74.7150683,39.191137],[-74.715087,39.1911386],[-74.7151036,39.1911402],[-74.7151051,39.1911395],[-74.7151223,39.1911321],[-74.7151388,39.1911191],[-74.7151533,39.1911029],[-74.7151761,39.19109],[-74.7152072,39.1910834],[-74.7152425,39.1910785],[-74.7152799,39.1910784],[-74.7153006,39.1910784],[-74.7153131,39.1910832],[-74.7153235,39.1910929],[-74.7153319,39.191109],[-74.715334,39.1911268],[-74.7153403,39.1911462],[-74.7153549,39.191172],[-74.715381,39.1911946],[-74.7153997,39.1912123],[-74.7154413,39.1912333],[-74.7154558,39.1912478],[-74.7154663,39.1912607],[-74.7154725,39.1912784],[-74.7154809,39.1912962],[-74.7154914,39.1913285],[-74.7155081,39.1913511],[-74.7155289,39.191364],[-74.7155517,39.1913687],[-74.7155746,39.1913687],[-74.7156057,39.1913686],[-74.7156327,39.1913638],[-74.7156659,39.1913605],[-74.7156949,39.1913653],[-74.7157158,39.1913765],[-74.7157324,39.191404],[-74.7157532,39.1914169],[-74.7157761,39.1914217],[-74.7158031,39.1914216],[-74.715828,39.1914216],[-74.7158612,39.1914215],[-74.7158944,39.1914263],[-74.7159298,39.1914408],[-74.7159568,39.1914617],[-74.7159995,39.1915117],[-74.7160245,39.1915262],[-74.7160453,39.1915278],[-74.7160702,39.1915277],[-74.7161054,39.1915148],[-74.7161176,39.1915017],[-74.7161615,39.1915114],[-74.7161734,39.1915146],[-74.7161823,39.1915211],[-74.716201,39.1915437],[-74.7162094,39.1915517],[-74.7162655,39.1915823],[-74.7163055,39.1915984],[-74.7163715,39.1916177],[-74.7163907,39.1916273],[-74.7164063,39.1916378],[-74.7164209,39.1916482],[-74.7164355,39.1916571],[-74.7164427,39.1916587],[-74.7164583,39.1916611],[-74.7164739,39.1916659],[-74.7164801,39.1916716],[-74.7164864,39.1916772],[-74.7164947,39.1916804],[-74.7165093,39.1916836],[-74.7165217,39.1916852],[-74.7165394,39.1916844],[-74.7165528,39.1916787],[-74.7165694,39.1916746],[-74.7165922,39.1916714],[-74.7166151,39.1916697],[-74.716641,39.1916705],[-74.7166587,39.1916745],[-74.7166743,39.1916825],[-74.7166972,39.1916946],[-74.7167107,39.1917059],[-74.7167242,39.1917196],[-74.7167419,39.1917333],[-74.7167533,39.1917389],[-74.7167721,39.1917486],[-74.7167897,39.191751],[-74.7168095,39.1917509],[-74.716837,39.1917509],[-74.7168774,39.191746],[-74.7169158,39.1917402],[-74.7169418,39.1917337],[-74.7169708,39.1917159],[-74.7169873,39.1917013],[-74.7169977,39.1916916],[-74.7170122,39.1916787],[-74.7170371,39.1916657],[-74.7170682,39.1916608],[-74.7170993,39.1916623],[-74.7171201,39.1916655],[-74.7171679,39.1916832],[-74.7171887,39.1916945],[-74.7172136,39.1917041],[-74.7172572,39.1917057],[-74.7172822,39.1917072],[-74.7172988,39.1917137],[-74.7173154,39.1917233],[-74.7173279,39.1917362],[-74.7173363,39.1917492],[-74.7173467,39.191762],[-74.7173571,39.1917749],[-74.7173821,39.1918024],[-74.7174009,39.1918185],[-74.7174175,39.1918282],[-74.7174383,39.1918394],[-74.7174549,39.1918507],[-74.7174674,39.1918636],[-74.7174758,39.1918878],[-74.7174811,39.1919331],[-74.7174957,39.1919492],[-74.7175165,39.191954],[-74.7175414,39.1919555],[-74.7175829,39.1919635],[-74.7176523,39.1919761],[-74.7294736,39.19972],[-74.6671539,39.2474434],[-74.6426732,39.2402887]]]}}
